CCSDS_OMM_VERS,COMMENT,CREATION_DATE,ORIGINATOR,OBJECT_NAME,OBJECT_ID,CENTER_NAME,REF_FRAME,TIME_SYSTEM,MEAN_ELEMENT_THEORY,EPOCH,MEAN_MOTION,ECCENTRICITY,INCLINATION,RA_OF_ASC_NODE,ARG_OF_PERICENTER,MEAN_ANOMALY,EPHEMERIS_TYPE,CLASSIFICATION_TYPE,NORAD_CAT_ID,ELEMENT_SET_NO,REV_AT_EPOCH,BSTAR,MEAN_MOTION_DOT,MEAN_MOTION_DDOT,SEMIMAJOR_AXIS,PERIOD,APOAPSIS,PERIAPSIS,OBJECT_TYPE,RCS_SIZE,COUNTRY_CODE,LAUNCH_DATE,SITE,DECAY_DATE,FILE,GP_ID,TLE_LINE0,TLE_LINE1,TLE_LINE2
2,GENERATED VIA SPACE-TRACK.ORG API,2022-09-23T17:21:20,18 SPCS,GALILEO-FM3,2012-055A,EARTH,TEME,UTC,SGP4,2022-09-23T06:01:28.174656,1.70473828,0.0002138,55.1624,139.0099,254.9041,105.1754,0,U,38857,999,6177,0.0,2.7e-07,0,29600.34,844.704,23228.534,23215.876,PAYLOAD,LARGE,ESA,2012-10-12,FRGUI,,3581351,213295582,0 GALILEO-FM3,1 38857U 12055A   22266.25102054  .00000027  00000-0  00000-0 0  9990,2 38857  55.1624 139.0099 0002138 254.9041 105.1754  1.70473828 61770
2,GENERATED VIA SPACE-TRACK.ORG API,2022-09-25T06:36:12,18 SPCS,GALILEO-FM3,2012-055A,EARTH,TEME,UTC,SGP4,2022-09-23T06:01:28.174656,1.70473828,0.0002138,55.1624,139.0099,254.9041,105.1754,0,U,38857,999,6191,0.0,2.7e-07,0,29600.34,844.704,23228.534,23215.876,PAYLOAD,LARGE,ESA,2012-10-12,FRGUI,,3582728,213409192,0 GALILEO-FM3,1 38857U 12055A   22266.25102054  .00000027  00000-0  00000+0 0  9999,2 38857  55.1624 139.0099 0002138 254.9041 105.1754  1.70473828 61916
2,GENERATED VIA SPACE-TRACK.ORG API,2022-09-26T14:26:12,18 SPCS,GALILEO-FM3,2012-055A,EARTH,TEME,UTC,SGP4,2022-09-26T04:24:54.491328,1.70473768,0.0002075,55.1632,138.9292,253.2763,106.8175,0,U,38857,999,6196,0.0,4.8e-07,0,29600.347,844.705,23228.354,23216.07,PAYLOAD,LARGE,ESA,2012-10-12,FRGUI,,3584251,213519289,0 GALILEO-FM3,1 38857U 12055A   22269.18396402  .00000048  00000-0  00000+0 0  9999,2 38857  55.1632 138.9292 0002075 253.2763 106.8175  1.70473768 61964
2,GENERATED VIA SPACE-TRACK.ORG API,2022-09-29T02:07:15,18 SPCS,GALILEO-FM3,2012-055A,EARTH,TEME,UTC,SGP4,2022-09-28T12:43:37.362720,1.70473708,0.0002091,55.164,138.8646,252.034,108.0563,0,U,38857,999,6186,0.0,5e-07,0,29600.354,844.705,23228.408,23216.029,PAYLOAD,LARGE,ESA,2012-10-12,FRGUI,,3586258,213759236,0 GALILEO-FM3,1 38857U 12055A   22271.53029355  .00000050  00000-0  00000-0 0  9995,2 38857  55.1640 138.8646 0002091 252.0340 108.0563  1.70473708 61869
2,GENERATED VIA SPACE-TRACK.ORG API,2022-09-29T06:36:12,18 SPCS,GALILEO-FM3,2012-055A,EARTH,TEME,UTC,SGP4,2022-09-28T12:43:37.362720,1.70473708,0.0002091,55.164,138.8646,252.034,108.0563,0,U,38857,999,6200,0.0,5e-07,0,29600.354,844.705,23228.408,23216.029,PAYLOAD,LARGE,ESA,2012-10-12,FRGUI,,3586331,213769749,0 GALILEO-FM3,1 38857U 12055A   22271.53029355  .00000050  00000-0  00000+0 0  9994,2 38857  55.1640 138.8646 0002091 252.0340 108.0563  1.70473708 62006
2,GENERATED VIA SPACE-TRACK.ORG API,2022-09-29T17:36:14,18 SPCS,GALILEO-FM3,2012-055A,EARTH,TEME,UTC,SGP4,2022-09-29T02:48:17.994816,1.70473685,0.0002047,55.1642,138.8485,250.7529,109.3353,0,U,38857,999,6187,0.0,4.8e-07,0,29600.357,844.705,23228.281,23216.162,PAYLOAD,LARGE,ESA,2012-10-12,FRGUI,,3586894,213798684,0 GALILEO-FM3,1 38857U 12055A   22272.11687494  .00000048  00000-0  00000-0 0  9991,2 38857  55.1642 138.8485 0002047 250.7529 109.3353  1.70473685 61873
2,GENERATED VIA SPACE-TRACK.ORG API,2022-10-01T17:34:12,18 SPCS,GALILEO-FM3,2012-055A,EARTH,TEME,UTC,SGP4,2022-09-30T21:02:19.135968,1.70473659,0.000205,55.1648,138.8,249.9918,110.0863,0,U,38857,999,6190,0.0,3.8e-07,0,29600.36,844.705,23228.293,23216.156,PAYLOAD,LARGE,ESA,2012-10-12,FRGUI,,3588593,213940157,0 GALILEO-FM3,1 38857U 12055A   22273.87661037  .00000038  00000-0  00000-0 0  9999,2 38857  55.1648 138.8000 0002050 249.9918 110.0863  1.70473659 61908
2,GENERATED VIA SPACE-TRACK.ORG API,2022-10-01T14:36:11,18 SPCS,GALILEO-FM3,2012-055A,EARTH,TEME,UTC,SGP4,2022-09-30T21:02:19.135968,1.70473659,0.000205,55.1648,138.8,249.9918,110.0863,0,U,38857,999,6204,0.0,3.8e-07,0,29600.36,844.705,23228.293,23216.156,PAYLOAD,LARGE,ESA,2012-10-12,FRGUI,,3588383,213918482,0 GALILEO-FM3,1 38857U 12055A   22273.87661037  .00000038  00000-0  00000+0 0  9998,2 38857  55.1648 138.8000 0002050 249.9918 110.0863  1.70473659 62044
2,GENERATED VIA SPACE-TRACK.ORG API,2022-10-02T17:40:04,18 SPCS,GALILEO-FM3,2012-055A,EARTH,TEME,UTC,SGP4,2022-10-02T01:11:40.115040,1.70473645,0.0002048,55.1652,138.7677,249.3395,110.7332,0,U,38857,999,6192,0.0,3.2e-07,0,29600.361,844.705,23228.288,23216.164,PAYLOAD,LARGE,ESA,2012-10-12,FRGUI,,3589474,214010805,0 GALILEO-FM3,1 38857U 12055A   22275.04976985  .00000032  00000-0  00000-0 0  9995,2 38857  55.1652 138.7677 0002048 249.3395 110.7332  1.70473645 61927
2,GENERATED VIA SPACE-TRACK.ORG API,2022-10-03T19:14:39,18 SPCS,GALILEO-FM3,2012-055A,EARTH,TEME,UTC,SGP4,2022-10-03T05:21:01.614240,1.70473644,0.0002024,55.1657,138.7355,248.7892,111.2816,0,U,38857,999,6194,0.0,2.9e-07,0,29600.361,844.705,23228.217,23216.235,PAYLOAD,LARGE,ESA,2012-10-12,FRGUI,,3590320,214081225,0 GALILEO-FM3,1 38857U 12055A   22276.22293535  .00000029  00000-0  00000-0 0  9995,2 38857  55.1657 138.7355 0002024 248.7892 111.2816  1.70473644 61948
2,GENERATED VIA SPACE-TRACK.ORG API,2022-10-03T22:36:12,18 SPCS,GALILEO-FM3,2012-055A,EARTH,TEME,UTC,SGP4,2022-10-03T05:21:01.614240,1.70473644,0.0002024,55.1657,138.7355,248.7892,111.2816,0,U,38857,999,6208,0.0,2.9e-07,0,29600.361,844.705,23228.217,23216.235,PAYLOAD,LARGE,ESA,2012-10-12,FRGUI,,3590386,214092042,0 GALILEO-FM3,1 38857U 12055A   22276.22293535  .00000029  00000-0  00000+0 0  9994,2 38857  55.1657 138.7355 0002024 248.7892 111.2816  1.70473644 62084
2,GENERATED VIA SPACE-TRACK.ORG API,2022-10-05T18:08:02,18 SPCS,GALILEO-FM3,2012-055A,EARTH,TEME,UTC,SGP4,2022-10-04T23:35:04.564608,1.7047365,0.0002058,55.1662,138.687,248.7885,111.2853,0,U,38857,999,6197,0.0,3.2e-07,0,29600.361,844.705,23228.317,23216.134,PAYLOAD,LARGE,ESA,2012-10-12,FRGUI,,3592692,214234582,0 GALILEO-FM3,1 38857U 12055A   22277.98269172  .00000032  00000-0  00000-0 0  9993,2 38857  55.1662 138.6870 0002058 248.7885 111.2853  1.70473650 61975
2,GENERATED VIA SPACE-TRACK.ORG API,2022-10-08T02:47:23,18 SPCS,GALILEO-FM3,2012-055A,EARTH,TEME,UTC,SGP4,2022-10-07T07:53:49.607232,1.70473683,0.0001999,55.1671,138.6225,247.3277,112.7566,0,U,38857,999,6201,0.0,4.2e-07,0,29600.357,844.705,23228.139,23216.305,PAYLOAD,LARGE,ESA,2012-10-12,FRGUI,,3595773,214428264,0 GALILEO-FM3,1 38857U 12055A   22280.32904638  .00000042  00000-0  00000-0 0  9999,2 38857  55.1671 138.6225 0001999 247.3277 112.7566  1.70473683 62011
2,GENERATED VIA SPACE-TRACK.ORG API,2022-10-07T22:36:12,18 SPCS,GALILEO-FM3,2012-055A,EARTH,TEME,UTC,SGP4,2022-10-07T07:53:49.607232,1.70473683,0.0001999,55.1671,138.6225,247.3277,112.7566,0,U,38857,999,6215,0.0,4.2e-07,0,29600.357,844.705,23228.139,23216.305,PAYLOAD,LARGE,ESA,2012-10-12,FRGUI,,3595563,214408552,0 GALILEO-FM3,1 38857U 12055A   22280.32904638  .00000042  00000-0  00000+0 0  9998,2 38857  55.1671 138.6225 0001999 247.3277 112.7566  1.70473683 62156
2,GENERATED VIA SPACE-TRACK.ORG API,2022-10-09T02:56:48,18 SPCS,GALILEO-FM3,2012-055A,EARTH,TEME,UTC,SGP4,2022-10-08T12:03:11.771712,1.70473702,0.0001984,55.1675,138.5902,246.5582,113.529,0,U,38857,999,6203,0.0,4.4e-07,0,29600.355,844.705,23228.092,23216.347,PAYLOAD,LARGE,ESA,2012-10-12,FRGUI,,3596607,214498120,0 GALILEO-FM3,1 38857U 12055A   22281.50221958  .00000044  00000-0  00000-0 0  9999,2 38857  55.1675 138.5902 0001984 246.5582 113.5290  1.70473702 62037
2,GENERATED VIA SPACE-TRACK.ORG API,2022-10-10T19:48:21,18 SPCS,GALILEO-FM3,2012-055A,EARTH,TEME,UTC,SGP4,2022-10-10T06:17:14.179488,1.70473739,0.0001968,55.1682,138.5418,245.5065,114.5791,0,U,38857,999,6206,0.0,4e-07,0,29600.35,844.705,23228.041,23216.39,PAYLOAD,LARGE,ESA,2012-10-12,FRGUI,,3600948,214668507,0 GALILEO-FM3,1 38857U 12055A   22283.26196967  .00000040  00000-0  00000-0 0  9991,2 38857  55.1682 138.5418 0001968 245.5065 114.5791  1.70473739 62064
2,GENERATED VIA SPACE-TRACK.ORG API,2022-10-10T22:26:12,18 SPCS,GALILEO-FM3,2012-055A,EARTH,TEME,UTC,SGP4,2022-10-10T06:17:14.179488,1.70473739,0.0001968,55.1682,138.5418,245.5065,114.5791,0,U,38857,999,6220,0.0,4e-07,0,29600.35,844.705,23228.041,23216.39,PAYLOAD,LARGE,ESA,2012-10-12,FRGUI,,3601074,214680305,0 GALILEO-FM3,1 38857U 12055A   22283.26196967  .00000040  00000-0  00000+0 0  9990,2 38857  55.1682 138.5418 0001968 245.5065 114.5791  1.70473739 62200
2,GENERATED VIA SPACE-TRACK.ORG API,2022-10-11T19:33:09,18 SPCS,GALILEO-FM3,2012-055A,EARTH,TEME,UTC,SGP4,2022-10-10T20:21:54.813312,1.70473743,0.0001959,55.1684,138.5257,244.7959,115.2878,0,U,38857,999,6207,0.0,3.8e-07,0,29600.35,844.705,23228.014,23216.416,PAYLOAD,LARGE,ESA,2012-10-12,FRGUI,,3603543,214774420,0 GALILEO-FM3,1 38857U 12055A   22283.84855108  .00000038  00000-0  00000-0 0  9991,2 38857  55.1684 138.5257 0001959 244.7959 115.2878  1.70473743 62070
2,GENERATED VIA SPACE-TRACK.ORG API,2022-10-12T02:34:44,18 SPCS,GALILEO-FM3,2012-055A,EARTH,TEME,UTC,SGP4,2022-10-11T10:26:35.343456,1.70473754,0.0001956,55.1685,138.5095,244.3666,115.7146,0,U,38857,999,6208,0.0,3.6e-07,0,29600.349,844.705,23228.003,23216.424,PAYLOAD,LARGE,ESA,2012-10-12,FRGUI,,3604484,214815894,0 GALILEO-FM3,1 38857U 12055A   22284.43513129  .00000036  00000-0  00000-0 0  9999,2 38857  55.1685 138.5095 0001956 244.3666 115.7146  1.70473754 62085
2,GENERATED VIA SPACE-TRACK.ORG API,2022-10-13T22:22:33,18 SPCS,GALILEO-FM3,2012-055A,EARTH,TEME,UTC,SGP4,2022-10-13T04:40:36.773184,1.70473793,0.0001937,55.1691,138.4611,243.0548,117.0178,0,U,38857,999,6211,0.0,3e-07,0,29600.344,844.705,23227.943,23216.475,PAYLOAD,LARGE,ESA,2012-10-12,FRGUI,,3609209,214987339,0 GALILEO-FM3,1 38857U 12055A   22286.19487006  .00000030  00000-0  00000-0 0  9992,2 38857  55.1691 138.4611 0001937 243.0548 117.0178  1.70473793 62116
